{
  "type": "FeatureCollection",
  "features": [
    {
      "type": "Feature",
      "properties": {
        "norad_id": 58701,
        "name": "TIANMU-1 16",
        "group": "weather",
        "lat": -74.23307593851277,
        "lon": -156.84370653655492,
        "alt_km": 496.8146210103241,
        "timestamp": "2025-12-20T16:47:35.934585+00:00",
        "meta_object_name": "TIANMU-1 16",
        "meta_object_id": "2024-004B",
        "meta_epoch": "2025-12-20T12:24:02.364192",
        "meta_mean_motion": 15.24528929,
        "meta_eccentricity": 0.0004324,
        "meta_inclination": 97.456,
        "meta_ra_of_asc_node": 175.3393,
        "meta_arg_of_pericenter": 260.593,
        "meta_mean_anomaly": 99.4819,
        "meta_ephemeris_type": 0,
        "meta_classification_type": "U",
        "meta_norad_cat_id": 58701,
        "meta_element_set_no": 999,
        "meta_rev_at_epoch": 10853,
        "meta_bstar": 0.00020348,
        "meta_mean_motion_dot": 4.935e-05,
        "meta_mean_motion_ddot": 0,
        "tle_line1": "1 58701U 24004B   25354.51669403  .00004935  00000+0  20348-3 0  9994",
        "tle_line2": "2 58701  97.4560 175.3393 0004324 260.5930  99.4819 15.24528929108537"
      },
      "geometry": {
        "type": "Point",
        "coordinates": [
          -156.84370653655492,
          -74.23307593851277
        ]
      }
    },
    {
      "type": "Feature",
      "properties": {
        "norad_id": 58702,
        "name": "TIANMU-1 17",
        "group": "weather",
        "lat": 9.531537052287275,
        "lon": 174.67486074817106,
        "alt_km": 494.56497580637824,
        "timestamp": "2025-12-20T16:47:35.934601+00:00",
        "meta_object_name": "TIANMU-1 17",
        "meta_object_id": "2024-004C",
        "meta_epoch": "2025-12-20T12:01:32.156832",
        "meta_mean_motion": 15.2457244,
        "meta_eccentricity": 0.0003518,
        "meta_inclination": 97.4595,
        "meta_ra_of_asc_node": 175.7377,
        "meta_arg_of_pericenter": 262.771,
        "meta_mean_anomaly": 97.3127,
        "meta_ephemeris_type": 0,
        "meta_classification_type": "U",
        "meta_norad_cat_id": 58702,
        "meta_element_set_no": 999,
        "meta_rev_at_epoch": 10852,
        "meta_bstar": 0.00019565,
        "meta_mean_motion_dot": 4.748e-05,
        "meta_mean_motion_ddot": 0,
        "tle_line1": "1 58702U 24004C   25354.50106663  .00004748  00000+0  19565-3 0  9999",
        "tle_line2": "2 58702  97.4595 175.7377 0003518 262.7710  97.3127 15.24572440108521"
      },
      "geometry": {
        "type": "Point",
        "coordinates": [
          174.67486074817106,
          9.531537052287275
        ]
      }
    },
    {
      "type": "Feature",
      "properties": {
        "norad_id": 58703,
        "name": "TIANMU-1 18",
        "group": "weather",
        "lat": 76.87918021149562,
        "lon": 30.344139459496432,
        "alt_km": 486.7213500446069,
        "timestamp": "2025-12-20T16:47:35.934619+00:00",
        "meta_object_name": "TIANMU-1 18",
        "meta_object_id": "2024-004D",
        "meta_epoch": "2025-12-20T13:12:07.668864",
        "meta_mean_motion": 15.24557816,
        "meta_eccentricity": 0.0002865,
        "meta_inclination": 97.4612,
        "meta_ra_of_asc_node": 175.9835,
        "meta_arg_of_pericenter": 260.376,
        "meta_mean_anomaly": 99.7154,
        "meta_ephemeris_type": 0,
        "meta_classification_type": "U",
        "meta_norad_cat_id": 58703,
        "meta_element_set_no": 999,
        "meta_rev_at_epoch": 10853,
        "meta_bstar": 0.00019049,
        "meta_mean_motion_dot": 4.618e-05,
        "meta_mean_motion_ddot": 0,
        "tle_line1": "1 58703U 24004D   25354.55008876  .00004618  00000+0  19049-3 0  9995",
        "tle_line2": "2 58703  97.4612 175.9835 0002865 260.3760  99.7154 15.24557816108533"
      },
      "geometry": {
        "type": "Point",
        "coordinates": [
          30.344139459496432,
          76.87918021149562
        ]
      }
    },
    {
      "type": "Feature",
      "properties": {
        "norad_id": 58990,
        "name": "INSAT-3DS",
        "group": "weather",
        "lat": -0.004649460943570412,
        "lon": 63.531600710120024,
        "alt_km": 35789.98107663502,
        "timestamp": "2025-12-20T16:47:35.934638+00:00",
        "meta_object_name": "INSAT-3DS",
        "meta_object_id": "2024-033A",
        "meta_epoch": "2025-12-20T08:29:05.880192",
        "meta_mean_motion": 1.00272266,
        "meta_eccentricity": 0.0001079,
        "meta_inclination": 0.053,
        "meta_ra_of_asc_node": 104.8283,
        "meta_arg_of_pericenter": 167.2986,
        "meta_mean_anomaly": 26.441,
        "meta_ephemeris_type": 0,
        "meta_classification_type": "U",
        "meta_norad_cat_id": 58990,
        "meta_element_set_no": 999,
        "meta_rev_at_epoch": 4527,
        "meta_bstar": 0,
        "meta_mean_motion_dot": -1.33e-06,
        "meta_mean_motion_ddot": 0,
        "tle_line1": "1 58990U 24033A   25354.35354028 -.00000133  00000+0  00000+0 0  9998",
        "tle_line2": "2 58990   0.0530 104.8283 0001079 167.2986  26.4410  1.00272266 45274"
      },
      "geometry": {
        "type": "Point",
        "coordinates": [
          63.531600710120024,
          -0.004649460943570412
        ]
      }
    },
    {
      "type": "Feature",
      "properties": {
        "norad_id": 59051,
        "name": "METEOR-M2 4",
        "group": "weather",
        "lat": -53.392396450432514,
        "lon": 119.62058412702541,
        "alt_km": 825.0989454520259,
        "timestamp": "2025-12-20T16:47:35.934655+00:00",
        "meta_object_name": "METEOR-M2 4",
        "meta_object_id": "2024-039A",
        "meta_epoch": "2025-12-20T12:19:06.574656",
        "meta_mean_motion": 14.22402368,
        "meta_eccentricity": 0.0006622,
        "meta_inclination": 98.6777,
        "meta_ra_of_asc_node": 311.3006,
        "meta_arg_of_pericenter": 335.7047,
        "meta_mean_anomaly": 24.3817,
        "meta_ephemeris_type": 0,
        "meta_classification_type": "U",
        "meta_norad_cat_id": 59051,
        "meta_element_set_no": 999,
        "meta_rev_at_epoch": 9386,
        "meta_bstar": 1.823e-05,
        "meta_mean_motion_dot": -3e-08,
        "meta_mean_motion_ddot": 0,
        "tle_line1": "1 59051U 24039A   25354.51327054 -.00000003  00000+0  18230-4 0  9995",
        "tle_line2": "2 59051  98.6777 311.3006 0006622 335.7047  24.3817 14.22402368 93868"
      },
      "geometry": {
        "type": "Point",
        "coordinates": [
          119.62058412702541,
          -53.392396450432514
        ]
      }
    },
    {
      "type": "Feature",
      "properties": {
        "norad_id": 60133,
        "name": "GOES 19",
        "group": "weather",
        "lat": 0.0070359978585686,
        "lon": -93.78080848280362,
        "alt_km": 35783.95978192496,
        "timestamp": "2025-12-20T16:47:35.934672+00:00",
        "meta_object_name": "GOES 19",
        "meta_object_id": "2024-119A",
        "meta_epoch": "2025-12-20T07:01:16.731264",
        "meta_mean_motion": 1.00270902,
        "meta_eccentricity": 0.0001062,
        "meta_inclination": 0.0205,
        "meta_ra_of_asc_node": 174.2198,
        "meta_arg_of_pericenter": 149.6646,
        "meta_mean_anomaly": 155.3744,
        "meta_ephemeris_type": 0,
        "meta_classification_type": "U",
        "meta_norad_cat_id": 60133,
        "meta_element_set_no": 999,
        "meta_rev_at_epoch": 517,
        "meta_bstar": 0,
        "meta_mean_motion_dot": -2.24e-06,
        "meta_mean_motion_ddot": 0,
        "tle_line1": "1 60133U 24119A   25354.29255476 -.00000224  00000+0  00000+0 0  9996",
        "tle_line2": "2 60133   0.0205 174.2198 0001062 149.6646 155.3744  1.00270902  5172"
      },
      "geometry": {
        "type": "Point",
        "coordinates": [
          -93.78080848280362,
          0.0070359978585686
        ]
      }
    },
    {
      "type": "Feature",
      "properties": {
        "norad_id": 65815,
        "name": "FENGYUN 3H",
        "group": "weather",
        "lat": 41.08607900744749,
        "lon": -73.51839943993605,
        "alt_km": 822.1068675521619,
        "timestamp": "2025-12-20T16:47:35.934689+00:00",
        "meta_object_name": "FENGYUN 3H",
        "meta_object_id": "2025-219A",
        "meta_epoch": "2025-12-20T09:49:58.531008",
        "meta_mean_motion": 14.1990658,
        "meta_eccentricity": 7.35e-05,
        "meta_inclination": 98.6595,
        "meta_ra_of_asc_node": 293.8338,
        "meta_arg_of_pericenter": 105.2482,
        "meta_mean_anomaly": 254.8776,
        "meta_ephemeris_type": 0,
        "meta_classification_type": "U",
        "meta_norad_cat_id": 65815,
        "meta_element_set_no": 999,
        "meta_rev_at_epoch": 1201,
        "meta_bstar": 3.8995e-05,
        "meta_mean_motion_dot": 4e-07,
        "meta_mean_motion_ddot": 0,
        "tle_line1": "1 65815U 25219A   25354.40970522  .00000040  00000+0  38995-4 0  9993",
        "tle_line2": "2 65815  98.6595 293.8338 0000735 105.2482 254.8776 14.19906580 12018"
      },
      "geometry": {
        "type": "Point",
        "coordinates": [
          -73.51839943993605,
          41.08607900744749
        ]
      }
    }
  ]
}